start=new Date('2022-05-27T00:00:00.000Z').valueOf();
sats=[{"APOAPSIS":"541.481","ECCENTRICITY":"0.00023730","NORAD_CAT_ID":"49419","COUNTRY_CODE":"US","PERIAPSIS":"538.198","FILE":"3466271","MEAN_MOTION_DDOT":"0.0000000000000","BSTAR":"0.00369660000000","MEAN_MOTION_DOT":"0.00058988","SITE":"AFETR","SEMIMAJOR_AXIS":"6917.974","GP_ID":"204628438","OBJECT_ID":"2021-104M","TIME_SYSTEM":"UTC","ELEMENT_SET_NO":"999","MEAN_ELEMENT_THEORY":"SGP4","CENTER_NAME":"EARTH","PERIOD":"95.439","TLE_LINE1":"1 49419U 21104M   22146.91667824  .00058988  00000-0  36966-2 0  9993","RCS_SIZE":"LARGE","ARG_OF_PERICENTER":"35.3756","REF_FRAME":"TEME","RA_OF_ASC_NODE":"316.6336","MEAN_ANOMALY":"241.3561","OBJECT_TYPE":"PAYLOAD","EPHEMERIS_TYPE":"0","OBJECT_NAME":"STARLINK-3120","TLE_LINE2":"2 49419  53.2173 316.6336 0002373  35.3756 241.3561 15.08809330  1305","MEAN_MOTION":"15.08809330","EPOCH":"2022-05-26T22:00:00.999936","DECAY_DATE":null,"LAUNCH_DATE":"2021-11-13","REV_AT_EPOCH":"130","CLASSIFICATION_TYPE":"U","INCLINATION":"53.2173"},{"OBJECT_NAME":"STARLINK-3110","RA_OF_ASC_NODE":"316.6228","MEAN_ANOMALY":"210.2596","OBJECT_TYPE":"PAYLOAD","EPHEMERIS_TYPE":"0","TLE_LINE1":"1 49420U 21104N   22146.91667824  .00028205  00000-0  17839-2 0  9992","RCS_SIZE":"LARGE","ARG_OF_PERICENTER":"26.4608","REF_FRAME":"TEME","CENTER_NAME":"EARTH","PERIOD":"95.439","CLASSIFICATION_TYPE":"U","INCLINATION":"53.2163","LAUNCH_DATE":"2021-11-13","REV_AT_EPOCH":"130","EPOCH":"2022-05-26T22:00:00.999936","DECAY_DATE":null,"TLE_LINE2":"2 49420  53.2163 316.6228 0002566  26.4608 210.2596 15.08823443  1301","MEAN_MOTION":"15.08823443","MEAN_MOTION_DDOT":"0.0000000000000","BSTAR":"0.00178390000000","COUNTRY_CODE":"US","PERIAPSIS":"538.021","FILE":"3466271","NORAD_CAT_ID":"49420","ECCENTRICITY":"0.00025660","APOAPSIS":"541.571","TIME_SYSTEM":"UTC","ELEMENT_SET_NO":"999","MEAN_ELEMENT_THEORY":"SGP4","OBJECT_ID":"2021-104N","MEAN_MOTION_DOT":"0.00028205","SITE":"AFETR","SEMIMAJOR_AXIS":"6917.931","GP_ID":"204628688"},{"APOAPSIS":"541.232","ECCENTRICITY":"0.00021490","NORAD_CAT_ID":"49421","FILE":"3465945","PERIAPSIS":"538.258","COUNTRY_CODE":"US","BSTAR":"0.00017549000000","MEAN_MOTION_DDOT":"0.0000000000000","SEMIMAJOR_AXIS":"6917.880","GP_ID":"204600717","SITE":"AFETR","MEAN_MOTION_DOT":"0.00002506","OBJECT_ID":"2021-104P","MEAN_ELEMENT_THEORY":"SGP4","ELEMENT_SET_NO":"999","TIME_SYSTEM":"UTC","PERIOD":"95.438","CENTER_NAME":"EARTH","RCS_SIZE":"LARGE","TLE_LINE1":"1 49421U 21104P   22146.79217900  .00002506  00000-0  17549-3 0  9990","ARG_OF_PERICENTER":"42.5845","REF_FRAME":"TEME","EPHEMERIS_TYPE":"0","OBJECT_TYPE":"PAYLOAD","MEAN_ANOMALY":"317.5314","RA_OF_ASC_NODE":"317.1868","OBJECT_NAME":"STARLINK-3112","MEAN_MOTION":"15.08840155","TLE_LINE2":"2 49421  53.2197 317.1868 0002149  42.5845 317.5314 15.08840155 30933","DECAY_DATE":null,"EPOCH":"2022-05-26T19:00:44.265600","REV_AT_EPOCH":"3093","LAUNCH_DATE":"2021-11-13","CLASSIFICATION_TYPE":"U","INCLINATION":"53.2197"},{"COUNTRY_CODE":"US","PERIAPSIS":"538.020","FILE":"3465955","MEAN_MOTION_DDOT":"0.0000000000000","BSTAR":"0.00341550000000","APOAPSIS":"541.662","ECCENTRICITY":"0.00026320","NORAD_CAT_ID":"49422","OBJECT_ID":"2021-104Q","MEAN_ELEMENT_THEORY":"SGP4","TIME_SYSTEM":"UTC","ELEMENT_SET_NO":"999","GP_ID":"204600875","SEMIMAJOR_AXIS":"6917.976","MEAN_MOTION_DOT":"0.00054445","SITE":"AFETR","OBJECT_TYPE":"PAYLOAD","EPHEMERIS_TYPE":"0","RA_OF_ASC_NODE":"316.6296","MEAN_ANOMALY":"229.3592","OBJECT_NAME":"STARLINK-3161","PERIOD":"95.440","CENTER_NAME":"EARTH","TLE_LINE1":"1 49422U 21104Q   22146.91667824  .00054445  00000-0  34155-2 0  9999","ARG_OF_PERICENTER":"27.3833","RCS_SIZE":"LARGE","REF_FRAME":"TEME","REV_AT_EPOCH":"3097","LAUNCH_DATE":"2021-11-13","CLASSIFICATION_TYPE":"U","INCLINATION":"53.2176","MEAN_MOTION":"15.08808688","TLE_LINE2":"2 49422  53.2176 316.6296 0002632  27.3833 229.3592 15.08808688 30972","EPOCH":"2022-05-26T22:00:00.999936","DECAY_DATE":null},{"MEAN_ELEMENT_THEORY":"SGP4","ELEMENT_SET_NO":"999","TIME_SYSTEM":"UTC","OBJECT_ID":"2021-104R","GP_ID":"204627939","SEMIMAJOR_AXIS":"6917.919","SITE":"AFETR","MEAN_MOTION_DOT":"0.00014324","BSTAR":"0.00091656000000","MEAN_MOTION_DDOT":"0.0000000000000","FILE":"3466271","COUNTRY_CODE":"US","PERIAPSIS":"538.108","NORAD_CAT_ID":"49423","ECCENTRICITY":"0.00024230","APOAPSIS":"541.460","CLASSIFICATION_TYPE":"U","INCLINATION":"53.2186","REV_AT_EPOCH":"130","LAUNCH_DATE":"2021-11-13","DECAY_DATE":null,"EPOCH":"2022-05-26T22:00:00.999936","MEAN_MOTION":"15.08827389","TLE_LINE2":"2 49423  53.2186 316.6284 0002423  28.2727 328.4474 15.08827389  1305","OBJECT_NAME":"STARLINK-3149","EPHEMERIS_TYPE":"0","OBJECT_TYPE":"PAYLOAD","MEAN_ANOMALY":"328.4474","RA_OF_ASC_NODE":"316.6284","ARG_OF_PERICENTER":"28.2727","TLE_LINE1":"1 49423U 21104R   22146.91667824  .00014324  00000-0  91656-3 0  9992","RCS_SIZE":"LARGE","REF_FRAME":"TEME","PERIOD":"95.438","CENTER_NAME":"EARTH"},{"APOAPSIS":"541.589","ECCENTRICITY":"0.00025950","NORAD_CAT_ID":"49424","FILE":"3466271","COUNTRY_CODE":"US","PERIAPSIS":"537.999","BSTAR":"0.00058740000000","MEAN_MOTION_DDOT":"0.0000000000000","SITE":"AFETR","MEAN_MOTION_DOT":"0.00009069","GP_ID":"204628189","SEMIMAJOR_AXIS":"6917.929","OBJECT_ID":"2021-104S","ELEMENT_SET_NO":"999","TIME_SYSTEM":"UTC","MEAN_ELEMENT_THEORY":"SGP4","CENTER_NAME":"EARTH","PERIOD":"95.439","TLE_LINE1":"1 49424U 21104S   22146.91667824  .00009069  00000-0  58740-3 0  9990","RCS_SIZE":"LARGE","ARG_OF_PERICENTER":"26.7210","REF_FRAME":"TEME","MEAN_ANOMALY":"270.0108","RA_OF_ASC_NODE":"316.6297","EPHEMERIS_TYPE":"0","OBJECT_TYPE":"PAYLOAD","OBJECT_NAME":"STARLINK-3135","TLE_LINE2":"2 49424  53.2168 316.6297 0002595  26.7210 270.0108 15.08824077  1307","MEAN_MOTION":"15.08824077","DECAY_DATE":null,"EPOCH":"2022-05-26T22:00:00.999936","LAUNCH_DATE":"2021-11-13","REV_AT_EPOCH":"130","CLASSIFICATION_TYPE":"U","INCLINATION":"53.2168"},{"GP_ID":"204629440","SEMIMAJOR_AXIS":"6917.944","SITE":"AFETR","MEAN_MOTION_DOT":"0.00011233","OBJECT_ID":"2021-104T","MEAN_ELEMENT_THEORY":"SGP4","ELEMENT_SET_NO":"999","TIME_SYSTEM":"UTC","APOAPSIS":"541.211","ECCENTRICITY":"0.00020270","NORAD_CAT_ID":"49425","FILE":"3466271","PERIAPSIS":"538.407","COUNTRY_CODE":"US","BSTAR":"0.00072315000000","MEAN_MOTION_DDOT":"0.0000000000000","MEAN_MOTION":"15.08819195","TLE_LINE2":"2 49425  53.2174 316.6306 0002027  35.1974 341.5326 15.08819195  1308","DECAY_DATE":null,"EPOCH":"2022-05-26T22:00:00.999936","REV_AT_EPOCH":"130","LAUNCH_DATE":"2021-11-13","CLASSIFICATION_TYPE":"U","INCLINATION":"53.2174","PERIOD":"95.439","CENTER_NAME":"EARTH","TLE_LINE1":"1 49425U 21104T   22146.91667824  .00011233  00000-0  72315-3 0  9991","RCS_SIZE":"LARGE","ARG_OF_PERICENTER":"35.1974","REF_FRAME":"TEME","EPHEMERIS_TYPE":"0","OBJECT_TYPE":"PAYLOAD","MEAN_ANOMALY":"341.5326","RA_OF_ASC_NODE":"316.6306","OBJECT_NAME":"STARLINK-3139"},{"OBJECT_ID":"2021-104U","MEAN_ELEMENT_THEORY":"SGP4","ELEMENT_SET_NO":"999","TIME_SYSTEM":"UTC","GP_ID":"204629691","SEMIMAJOR_AXIS":"6917.923","SITE":"AFETR","MEAN_MOTION_DOT":"0.00014829","FILE":"3466271","PERIAPSIS":"538.295","COUNTRY_CODE":"US","BSTAR":"0.00094822000000","MEAN_MOTION_DDOT":"0.0000000000000","ECCENTRICITY":"0.00021580","APOAPSIS":"541.281","NORAD_CAT_ID":"49426","REV_AT_EPOCH":"130","LAUNCH_DATE":"2021-11-13","CLASSIFICATION_TYPE":"U","INCLINATION":"53.2178","MEAN_MOTION":"15.08826076","TLE_LINE2":"2 49426  53.2178 316.6284 0002158  34.3861 302.3454 15.08826076  1302","DECAY_DATE":null,"EPOCH":"2022-05-26T22:00:00.999936","EPHEMERIS_TYPE":"0","OBJECT_TYPE":"PAYLOAD","MEAN_ANOMALY":"302.3454","RA_OF_ASC_NODE":"316.6284","OBJECT_NAME":"STARLINK-3114","PERIOD":"95.438","CENTER_NAME":"EARTH","RCS_SIZE":"LARGE","TLE_LINE1":"1 49426U 21104U   22146.91667824  .00014829  00000-0  94822-3 0  9993","ARG_OF_PERICENTER":"34.3861","REF_FRAME":"TEME"},{"MEAN_MOTION_DOT":"0.00027203","SITE":"AFETR","SEMIMAJOR_AXIS":"6917.955","GP_ID":"204628439","TIME_SYSTEM":"UTC","ELEMENT_SET_NO":"999","MEAN_ELEMENT_THEORY":"SGP4","OBJECT_ID":"2021-104V","NORAD_CAT_ID":"49427","ECCENTRICITY":"0.00021730","APOAPSIS":"541.323","MEAN_MOTION_DDOT":"0.0000000000000","BSTAR":"0.00172180000000","PERIAPSIS":"538.317","COUNTRY_CODE":"US","FILE":"3466271","EPOCH":"2022-05-26T22:00:00.999936","DECAY_DATE":null,"TLE_LINE2":"2 49427  53.2184 316.6299 0002173  30.9836   5.7536 15.08815661  1300","MEAN_MOTION":"15.08815661","CLASSIFICATION_TYPE":"U","INCLINATION":"53.2184","LAUNCH_DATE":"2021-11-13","REV_AT_EPOCH":"130","RCS_SIZE":"LARGE","TLE_LINE1":"1 49427U 21104V   22146.91667824  .00027203  00000-0  17218-2 0  9997","ARG_OF_PERICENTER":"30.9836","REF_FRAME":"TEME","CENTER_NAME":"EARTH","PERIOD":"95.439","OBJECT_NAME":"STARLINK-3131","RA_OF_ASC_NODE":"316.6299","MEAN_ANOMALY":"5.7536","OBJECT_TYPE":"PAYLOAD","EPHEMERIS_TYPE":"0"},{"MEAN_MOTION_DOT":"0.00057652","SITE":"AFETR","SEMIMAJOR_AXIS":"6917.981","GP_ID":"204600456","OBJECT_ID":"2021-104W","TIME_SYSTEM":"UTC","ELEMENT_SET_NO":"999","MEAN_ELEMENT_THEORY":"SGP4","APOAPSIS":"541.459","ECCENTRICITY":"0.00023310","NORAD_CAT_ID":"49428","COUNTRY_CODE":"US","PERIAPSIS":"538.234","FILE":"3465973","MEAN_MOTION_DDOT":"0.0000000000000","BSTAR":"0.00361420000000","TLE_LINE2":"2 49428  53.2162 316.6419 0002331  22.8344  68.6885 15.08807053 30966","MEAN_MOTION":"15.08807053","EPOCH":"2022-05-26T22:00:00.999936","DECAY_DATE":null,"LAUNCH_DATE":"2021-11-13","REV_AT_EPOCH":"3096","CLASSIFICATION_TYPE":"U","INCLINATION":"53.2162","CENTER_NAME":"EARTH","PERIOD":"95.440","TLE_LINE1":"1 49428U 21104W   22146.91667824  .00057652  00000-0  36142-2 0  9996","REF_FRAME":"TEME","RCS_SIZE":"LARGE","ARG_OF_PERICENTER":"22.8344","RA_OF_ASC_NODE":"316.6419","MEAN_ANOMALY":"68.6885","OBJECT_TYPE":"PAYLOAD","EPHEMERIS_TYPE":"0","OBJECT_NAME":"STARLINK-3121"}];
